NORAD_CAT_ID,OBJECT_NAME,OBJECT_TYPE,EPOCH,MEAN_MOTION,ECCENTRICITY,INCLINATION,RA_OF_ASC_NODE,ARG_OF_PERICENTER,MEAN_ANOMALY,BSTAR,MEAN_MOTION_DOT,MEAN_MOTION_DDOT,TLE_LINE0,TLE_LINE1,TLE_LINE2,SEMIMAJOR_AXIS,PERIOD,APOGEE,PERIGEE,DECAYED
52493.0,STARLINK-3883,PAYLOAD,2022-12-28 19:32:03,15.08829253,0.0002652,53.2162,247.4427,34.6603,325.4562,-0.00010227,-1.915e-05,0.0,0 STARLINK-3883,1 52493U 22049AU  22362.81392562 -.00001915  00000-0 -10227-3 0  9994,2 52493  53.2162 247.4427 0002652  34.6603 325.4562 15.08829253 36392,6917.913000000001,95.438,541.613,537.944,0.0
52493.0,STARLINK-3883,PAYLOAD,2022-12-29 09:50:32,15.08820557,0.0002655,53.2162,244.7666,35.3381,324.7786,-0.00013678,-2.464e-05,0.0,0 STARLINK-3883,1 52493U 22049AU  22363.41009801 -.00002464  00000-0 -13678-3 0  9995,2 52493  53.2162 244.7666 0002655  35.3381 324.7786 15.08820557 36489,6917.94,95.439,541.6419999999998,537.9680000000002,0.0
52493.0,STARLINK-3883,PAYLOAD,2022-12-30 09:41:20,15.08822037,0.0002319,53.2173,240.305,37.6641,322.4513,4.73e-05,4.64e-06,0.0,0 STARLINK-3883,1 52493U 22049AU  22364.40371033  .00000464  00000-0  47300-4 0  9990,2 52493  53.2173 240.3050 0002319  37.6641 322.4513 15.08822037 36478,6917.935,95.439,541.405,538.196,0.0
52493.0,STARLINK-3883,PAYLOAD,2022-12-30 19:13:39,15.08830362,0.0002403,53.217,238.5217,33.691,326.4235,0.00022884,3.355e-05,0.0,0 STARLINK-3883,1 52493U 22049AU  22364.80114661  .00003355  00000-0  22884-3 0  9997,2 52493  53.2170 238.5217 0002403  33.6910 326.4235 15.08830362 36697,6917.91,95.438,541.437,538.112,0.0
52493.0,STARLINK-3883,PAYLOAD,2022-12-31 01:35:12,15.08839572,0.0002413,53.2164,237.332,34.7813,325.3336,0.00047228,7.236e-05,0.0,0 STARLINK-3883,1 52493U 22049AU  22365.06611200  .00007236  00000-0  47228-3 0  9998,2 52493  53.2164 237.3320 0002413  34.7813 325.3336 15.08839572 36576,6917.882,95.438,541.4159999999998,538.077,0.0
52493.0,STARLINK-3883,PAYLOAD,2022-12-31 12:42:53,15.08854988,0.0002508,53.2165,235.251,34.0363,326.079,0.00069158,0.0001074,0.0,0 STARLINK-3883,1 52493U 22049AU  22365.52978833  .00010740  00000-0  69158-3 0  9997,2 52493  53.2165 235.2510 0002508  34.0363 326.0790 15.08854988 36641,6917.835,95.437,541.435,537.965,0.0
52493.0,STARLINK-3883,PAYLOAD,2023-01-01 07:47:31,15.08845004,0.0002733,53.2174,231.6825,32.1926,327.9233,-0.00013352,-2.413e-05,0.0,0 STARLINK-3883,1 52493U 22049AU  23001.32466607 -.00002413  00000-0 -13352-3 0  9999,2 52493  53.2174 231.6825 0002733  32.1926 327.9233 15.08845004 36926,6917.865,95.437,541.621,537.839,0.0
52493.0,STARLINK-3883,PAYLOAD,2023-01-01 22:05:59,15.08831885,0.0002677,53.2169,229.0068,35.891,324.2261,-0.00027901,-4.725e-05,0.0,0 STARLINK-3883,1 52493U 22049AU  23001.92083054 -.00004725  00000-0 -27901-3 0  9999,2 52493  53.2169 229.0068 0002677  35.8910 324.2261 15.08831885 36855,6917.905,95.438,541.622,537.918,0.0
52493.0,STARLINK-3883,PAYLOAD,2023-01-02 01:16:46,15.08835565,0.0002528,53.2167,228.4124,34.8317,325.284,-0.00012719,-2.312e-05,0.0,0 STARLINK-3883,1 52493U 22049AU  23002.05331172 -.00002312  00000-0 -12719-3 0  9992,2 52493  53.2167 228.4124 0002528  34.8317 325.2840 15.08835565 37038,6917.894,95.438,541.508,538.01,0.0
52493.0,STARLINK-3883,PAYLOAD,2023-01-02 07:38:18,15.08836124,0.0002546,53.2166,227.2232,34.915,325.2009,-9.0686e-05,-1.731e-05,0.0,0 STARLINK-3883,1 52493U 22049AU  23002.31827223 -.00001731  00000-0 -90686-4 0  9992,2 52493  53.2166 227.2232 0002546  34.9150 325.2009 15.08836124 36915,6917.892,95.438,541.519,537.996,0.0
52493.0,STARLINK-3883,PAYLOAD,2023-01-02 21:56:46,15.08841218,0.0002467,53.2167,224.5467,37.4491,322.6673,0.00013565,1.871e-05,0.0,0 STARLINK-3883,1 52493U 22049AU  23002.91443178  .00001871  00000-0  13565-3 0  9994,2 52493  53.2167 224.5467 0002467  37.4491 322.6673 15.08841218 37003,6917.877,95.437,541.448,538.035,0.0
52493.0,STARLINK-3883,PAYLOAD,2023-01-03 07:29:05,15.08844325,0.0002551,53.2165,222.7627,35.0561,325.0599,0.00026319,3.903e-05,0.0,0 STARLINK-3883,1 52493U 22049AU  23003.31187193  .00003903  00000-0  26319-3 0  9990,2 52493  53.2165 222.7627 0002551  35.0561 325.0599 15.08844325 37067,6917.8669999999975,95.437,541.497,537.967,0.0
52493.0,STARLINK-3883,PAYLOAD,2023-01-03 15:26:01,15.08849103,0.0002561,53.216,221.2755,33.3221,326.7932,0.00040327,6.137e-05,0.0,0 STARLINK-3883,1 52493U 22049AU  23003.64307058  .00006137  00000-0  40327-3 0  9997,2 52493  53.2160 221.2755 0002561  33.3221 326.7932 15.08849103 37274,6917.853,95.437,541.489,537.946,0.0
52493.0,STARLINK-3883,PAYLOAD,2023-01-03 23:22:56,15.08845916,0.0002648999999999,53.2168,219.7903,34.5569,325.5595,0.00017554,2.507e-05,0.0,0 STARLINK-3883,1 52493U 22049AU  23003.97427039  .00002507  00000-0  17554-3 0  9998,2 52493  53.2168 219.7903 0002649  34.5569 325.5595 15.08845916 37320,6917.861999999999,95.437,541.56,537.895,0.0
52493.0,STARLINK-3883,PAYLOAD,2023-01-04 20:02:57,15.08851832,0.0002711,53.2158,215.9233,34.2042,325.9125,0.00037955,5.759e-05,0.0,0 STARLINK-3883,1 52493U 22049AU  23004.83538808  .00005759  00000-0  37955-3 0  9990,2 52493  53.2158 215.9233 0002711  34.2042 325.9125 15.08851832 37299,6917.844,95.437,541.585,537.8340000000002,0.0
52493.0,STARLINK-3883,PAYLOAD,2023-01-05 07:10:39,15.08855676,0.0002641999999999,53.2156,213.8419,34.0151,326.101,0.00046518,7.126e-05,0.0,0 STARLINK-3883,1 52493U 22049AU  23005.29906458  .00007126  00000-0  46518-3 0  9996,2 52493  53.2156 213.8419 0002642  34.0151 326.1010 15.08855676 37524,6917.831999999999,95.437,541.525,537.87,0.0
52493.0,STARLINK-3883,PAYLOAD,2023-01-05 13:32:11,15.08859861,0.0002696,53.2152,212.6529,34.1978,325.9188,0.00051863,7.979999999999999e-05,0.0,0 STARLINK-3883,1 52493U 22049AU  23005.56402175  .00007980  00000-0  51863-3 0  9990,2 52493  53.2152 212.6529 0002696  34.1978 325.9188 15.08859861 37406,6917.82,95.436,541.55,537.82,0.0
52493.0,STARLINK-3883,PAYLOAD,2023-01-05 16:42:57,15.08857953,0.0002655,53.2148,212.0573,34.854,325.2625,0.00042381,6.467e-05,0.0,0 STARLINK-3883,1 52493U 22049AU  23005.69650091  .00006467  00000-0  42381-3 0  9990,2 52493  53.2148 212.0573 0002655  34.8540 325.2625 15.08857953 37422,6917.826,95.436,541.5269999999998,537.854,0.0
52493.0,STARLINK-3883,PAYLOAD,2023-01-06 07:01:25,15.08843035,0.0002898999999999,53.2146,209.3828,30.2103,329.9056,-5.5956e-05,-1.179e-05,0.0,0 STARLINK-3883,1 52493U 22049AU  23006.29266190 -.00001179  00000-0 -55956-4 0  9990,2 52493  53.2146 209.3828 0002899  30.2103 329.9056 15.08843035 37679,6917.871,95.437,541.742,537.731,0.0
52493.0,STARLINK-3883,PAYLOAD,2023-01-06 13:22:58,15.08837949,0.0002714,53.2145,208.192,34.6147,325.5022,-0.00011357,-2.096e-05,0.0,0 STARLINK-3883,1 52493U 22049AU  23006.55762491 -.00002096  00000-0 -11357-3 0  9999,2 52493  53.2145 208.1920 0002714  34.6147 325.5022 15.08837949 37559,6917.887,95.438,541.629,537.874,0.0
52493.0,STARLINK-3883,PAYLOAD,2023-01-06 22:55:17,15.08836429,0.0002817,53.2149,206.4081,33.8454,326.2717,-9.3766e-05,-1.781e-05,0.0,0 STARLINK-3883,1 52493U 22049AU  23006.95506705 -.00001781  00000-0 -93766-4 0  9992,2 52493  53.2149 206.4081 0002817  33.8454 326.2717 15.08836429 37773,6917.891,95.438,541.705,537.808,0.0
52493.0,STARLINK-3883,PAYLOAD,2023-01-07 19:35:18,15.08843533,0.0002699,53.2164,202.5411,38.0924,322.0259,-3.8993e-05,-9.09e-06,0.0,0 STARLINK-3883,1 52493U 22049AU  23007.81618586 -.00000909  00000-0 -38993-4 0  9991,2 52493  53.2164 202.5411 0002699  38.0924 322.0259 15.08843533 37747,6917.87,95.437,541.602,537.867,0.0
52493.0,STARLINK-3883,PAYLOAD,2023-01-08 13:04:34,15.08824932,0.0002544,53.2176,199.2707,37.8571,322.26,2.921e-05,1.76e-06,0.0,0 STARLINK-3883,1 52493U 22049AU  23008.54484038  .00000176  00000-0  29210-4 0  9991,2 52493  53.2176 199.2707 0002544  37.8571 322.2600 15.08824932 38019,6917.926,95.439,541.5509999999998,538.0319999999998,0.0
52493.0,STARLINK-3883,PAYLOAD,2023-01-08 21:01:29,15.08829357,0.000263,53.2176,197.7847,37.19,322.9273,4.4003e-05,4.12e-06,0.0,0 STARLINK-3883,1 52493U 22049AU  23008.87604001  .00000412  00000-0  44003-4 0  9991,2 52493  53.2176 197.7847 0002630  37.1900 322.9273 15.08829357 37908,6917.913000000001,95.438,541.597,537.9590000000002,0.0
52493.0,STARLINK-3883,PAYLOAD,2023-01-09 04:58:25,15.088340300000002,0.0002694,53.2178,196.2985,38.3654,321.7529,5.0795e-05,5.2e-06,0.0,0 STARLINK-3883,1 52493U 22049AU  23009.20723896  .00000520  00000-0  50795-4 0  9998,2 52493  53.2178 196.2985 0002694  38.3654 321.7529 15.08834030 38115,6917.899,95.438,541.627,537.9,0.0
52493.0,STARLINK-3883,PAYLOAD,2023-01-09 11:19:57,15.08837658,0.0002674,53.2179,195.1086,35.6981,324.4189,8.219399999999999e-05,1.02e-05,0.0,0 STARLINK-3883,1 52493U 22049AU  23009.47219649  .00001020  00000-0  82194-4 0  9997,2 52493  53.2179 195.1086 0002674  35.6981 324.4189 15.08837658 37993,6917.888000000001,95.438,541.602,537.903,0.0
52493.0,STARLINK-3883,PAYLOAD,2023-01-09 20:52:17,15.08818173,0.0002858,53.2178,193.3243,49.5648,310.5593,0.00038787,5.887e-05,0.0,0 STARLINK-3883,1 52493U 22049AU  23009.86964363  .00005887  00000-0  38787-3 0  9993,2 52493  53.2178 193.3243 0002858  49.5648 310.5593 15.08818173 38059,6917.946999999999,95.439,541.789,537.835,0.0
52493.0,STARLINK-3883,PAYLOAD,2023-01-10 11:10:44,15.08843763,0.0002748,53.2169,190.647,37.3198,322.7985,0.00020717,3.011e-05,0.0,0 STARLINK-3883,1 52493U 22049AU  23010.46579308  .00003011  00000-0  20717-3 0  9993,2 52493  53.2169 190.6470 0002748  37.3198 322.7985 15.08843763 38305,6917.8690000000015,95.437,541.635,537.8330000000002,0.0
52493.0,STARLINK-3883,PAYLOAD,2023-01-11 04:39:59,15.08843785,0.0002801,53.2174,187.376,37.9674,322.1515,0.00011306,1.512e-05,0.0,0 STARLINK-3883,1 52493U 22049AU  23011.19443565  .00001512  00000-0  11306-3 0  9997,2 52493  53.2174 187.3760 0002801  37.9674 322.1515 15.08843785 38410,6917.8690000000015,95.437,541.672,537.7959999999998,0.0
